[{"OBJECT_NAME":"GEESAT-6 11","OBJECT_ID":"2025-214M","EPOCH":"2026-03-09T23:07:42.214656","MEAN_MOTION":14.83011183,"ECCENTRICITY":0.00102147,"INCLINATION":49.983,"RA_OF_ASC_NODE":47.57,"ARG_OF_PERICENTER":204.321,"MEAN_ANOMALY":155.7247,"EPHEMERIS_TYPE":0,"CLASSIFICATION_TYPE":"U","NORAD_CAT_ID":65723,"ELEMENT_SET_NO":999,"REV_AT_EPOCH":2478,"BSTAR":0.0003899676,"MEAN_MOTION_DOT":2.981e-5,"MEAN_MOTION_DDOT":0},{"OBJECT_NAME":"SL-14 R\/B","OBJECT_ID":"1985-058B","EPOCH":"2026-03-09T17:05:08.172096","MEAN_MOTION":14.85781539,"ECCENTRICITY":0.00210646,"INCLINATION":82.5282,"RA_OF_ASC_NODE":154.9342,"ARG_OF_PERICENTER":138.8618,"MEAN_ANOMALY":221.4192,"EPHEMERIS_TYPE":0,"CLASSIFICATION_TYPE":"U","NORAD_CAT_ID":15890,"ELEMENT_SET_NO":999,"REV_AT_EPOCH":17646,"BSTAR":7.1757705e-5,"MEAN_MOTION_DOT":6.5e-6,"MEAN_MOTION_DDOT":0}]
